FENGYUN 1C DEB          
1 31744U 99025CET 17346.27493288  .00000713  00000-0  32332-3 0  9995
2 31744  99.4565   4.7532 0408927  65.2974 299.0178 13.88642360539557
